{
  "type": "FeatureCollection",
  "features": [
    {
      "type": "Feature",
      "properties": {
        "norad_id": 30218,
        "name": "FENGYUN 1C DEB",
        "group": "fengyun-1c-debris",
        "lat": -34.316081412007854,
        "lon": 74.23494842670117,
        "alt_km": 769.150627331579,
        "timestamp": "2025-12-04T21:36:16.147652+00:00",
        "meta_object_name": "FENGYUN 1C DEB",
        "meta_object_id": "1999-025WB",
        "meta_epoch": "2025-12-03T05:41:23.773344",
        "meta_mean_motion": 14.28604281,
        "meta_eccentricity": 0.0069969,
        "meta_inclination": 98.9855,
        "meta_ra_of_asc_node": 66.3228,
        "meta_arg_of_pericenter": 281.3972,
        "meta_mean_anomaly": 134.7205,
        "meta_ephemeris_type": 0,
        "meta_classification_type": "U",
        "meta_norad_cat_id": 30218,
        "meta_element_set_no": 999,
        "meta_rev_at_epoch": 96973,
        "meta_bstar": 0.0033338,
        "meta_mean_motion_dot": 8.554e-05,
        "meta_mean_motion_ddot": 0,
        "tle_line1": "1 30218U 99025WB  25337.23708071  .00008554  00000+0  33338-2 0  9990",
        "tle_line2": "2 30218  98.9855  66.3228 0069969 281.3972 134.7205 14.28604281969730"
      },
      "geometry": {
        "type": "Point",
        "coordinates": [
          74.23494842670117,
          -34.316081412007854
        ]
      }
    },
    {
      "type": "Feature",
      "properties": {
        "norad_id": 30221,
        "name": "FENGYUN 1C DEB",
        "group": "fengyun-1c-debris",
        "lat": 62.28617439516486,
        "lon": -96.39916416299039,
        "alt_km": 667.9831412881131,
        "timestamp": "2025-12-04T21:36:16.147662+00:00",
        "meta_object_name": "FENGYUN 1C DEB",
        "meta_object_id": "1999-025WE",
        "meta_epoch": "2025-12-04T12:46:36.488064",
        "meta_mean_motion": 14.45790627,
        "meta_eccentricity": 0.01457701,
        "meta_inclination": 98.957,
        "meta_ra_of_asc_node": 65.741,
        "meta_arg_of_pericenter": 65.7546,
        "meta_mean_anomaly": 295.8796,
        "meta_ephemeris_type": 0,
        "meta_classification_type": "U",
        "meta_norad_cat_id": 30221,
        "meta_element_set_no": 999,
        "meta_rev_at_epoch": 99282,
        "meta_bstar": 0.00042035934,
        "meta_mean_motion_dot": 1.646e-05,
        "meta_mean_motion_ddot": 0,
        "tle_line1": "1 30221U 99025WE  25338.53236676  .00001646  00000+0  42036-3 0  9996",
        "tle_line2": "2 30221  98.9570  65.7410 0145770  65.7546 295.8796 14.45790627992829"
      },
      "geometry": {
        "type": "Point",
        "coordinates": [
          -96.39916416299039,
          62.28617439516486
        ]
      }
    },
    {
      "type": "Feature",
      "properties": {
        "norad_id": 30222,
        "name": "FENGYUN 1C DEB",
        "group": "fengyun-1c-debris",
        "lat": -7.755055127228724,
        "lon": -168.7178961387354,
        "alt_km": 901.0059075950421,
        "timestamp": "2025-12-04T21:36:16.147673+00:00",
        "meta_object_name": "FENGYUN 1C DEB",
        "meta_object_id": "1999-025WF",
        "meta_epoch": "2025-12-04T16:11:03.471072",
        "meta_mean_motion": 14.0407425,
        "meta_eccentricity": 0.00382855,
        "meta_inclination": 98.8428,
        "meta_ra_of_asc_node": 12.2771,
        "meta_arg_of_pericenter": 59.3189,
        "meta_mean_anomaly": 67.1509,
        "meta_ephemeris_type": 0,
        "meta_classification_type": "U",
        "meta_norad_cat_id": 30222,
        "meta_element_set_no": 999,
        "meta_rev_at_epoch": 96725,
        "meta_bstar": 0.00010233162,
        "meta_mean_motion_dot": 1.2e-06,
        "meta_mean_motion_ddot": 0,
        "tle_line1": "1 30222U 99025WF  25338.67434573  .00000120  00000+0  10233-3 0  9998",
        "tle_line2": "2 30222  98.8428  12.2771 0038285  59.3189  67.1509 14.04074250967255"
      },
      "geometry": {
        "type": "Point",
        "coordinates": [
          -168.7178961387354,
          -7.755055127228724
        ]
      }
    },
    {
      "type": "Feature",
      "properties": {
        "norad_id": 30224,
        "name": "FENGYUN 1C DEB",
        "group": "fengyun-1c-debris",
        "lat": 49.80658346124062,
        "lon": 6.085949801172239,
        "alt_km": 867.9467453317011,
        "timestamp": "2025-12-04T21:36:16.147683+00:00",
        "meta_object_name": "FENGYUN 1C DEB",
        "meta_object_id": "1999-025WH",
        "meta_epoch": "2025-12-04T15:03:36.482976",
        "meta_mean_motion": 13.8985585,
        "meta_eccentricity": 0.01114085,
        "meta_inclination": 99.4848,
        "meta_ra_of_asc_node": 17.2205,
        "meta_arg_of_pericenter": 5.0967,
        "meta_mean_anomaly": 121.1818,
        "meta_ephemeris_type": 0,
        "meta_classification_type": "U",
        "meta_norad_cat_id": 30224,
        "meta_element_set_no": 999,
        "meta_rev_at_epoch": 95628,
        "meta_bstar": 0.0005501129,
        "meta_mean_motion_dot": 6.65e-06,
        "meta_mean_motion_ddot": 0,
        "tle_line1": "1 30224U 99025WH  25338.62750559  .00000665  00000+0  55011-3 0  9997",
        "tle_line2": "2 30224  99.4848  17.2205 0111408   5.0967 121.1818 13.89855850956288"
      },
      "geometry": {
        "type": "Point",
        "coordinates": [
          6.085949801172239,
          49.80658346124062
        ]
      }
    },
    {
      "type": "Feature",
      "properties": {
        "norad_id": 30225,
        "name": "FENGYUN 1C DEB",
        "group": "fengyun-1c-debris",
        "lat": -46.49360165646595,
        "lon": 176.65857331386138,
        "alt_km": 883.0155664621407,
        "timestamp": "2025-12-04T21:36:16.147693+00:00",
        "meta_object_name": "FENGYUN 1C DEB",
        "meta_object_id": "1999-025WJ",
        "meta_epoch": "2025-12-04T14:19:23.563200",
        "meta_mean_motion": 14.1517598,
        "meta_eccentricity": 0.01004854,
        "meta_inclination": 98.6609,
        "meta_ra_of_asc_node": 5.6046,
        "meta_arg_of_pericenter": 109.0239,
        "meta_mean_anomaly": 12.3003,
        "meta_ephemeris_type": 0,
        "meta_classification_type": "U",
        "meta_norad_cat_id": 30225,
        "meta_element_set_no": 999,
        "meta_rev_at_epoch": 97421,
        "meta_bstar": 0.00028142589,
        "meta_mean_motion_dot": 5.32e-06,
        "meta_mean_motion_ddot": 0,
        "tle_line1": "1 30225U 99025WJ  25338.59680050  .00000532  00000+0  28143-3 0  9991",
        "tle_line2": "2 30225  98.6609   5.6046 0100485 109.0239  12.3003 14.15175980974218"
      },
      "geometry": {
        "type": "Point",
        "coordinates": [
          176.65857331386138,
          -46.49360165646595
        ]
      }
    },
    {
      "type": "Feature",
      "properties": {
        "norad_id": 30229,
        "name": "FENGYUN 1C DEB",
        "group": "fengyun-1c-debris",
        "lat": -80.77479413870905,
        "lon": 138.4473982199291,
        "alt_km": 723.9417226357418,
        "timestamp": "2025-12-04T21:36:16.147704+00:00",
        "meta_object_name": "FENGYUN 1C DEB",
        "meta_object_id": "1999-025WN",
        "meta_epoch": "2025-12-04T16:11:34.771200",
        "meta_mean_motion": 14.60325267,
        "meta_eccentricity": 0.00379263,
        "meta_inclination": 99.0632,
        "meta_ra_of_asc_node": 37.5556,
        "meta_arg_of_pericenter": 65.2561,
        "meta_mean_anomaly": 98.5189,
        "meta_ephemeris_type": 0,
        "meta_classification_type": "U",
        "meta_norad_cat_id": 30229,
        "meta_element_set_no": 999,
        "meta_rev_at_epoch": 98808,
        "meta_bstar": 0.0048193443,
        "meta_mean_motion_dot": 0.0002355,
        "meta_mean_motion_ddot": 0,
        "tle_line1": "1 30229U 99025WN  25338.67470800  .00023550  00000+0  48193-2 0  9995",
        "tle_line2": "2 30229  99.0632  37.5556 0037926  65.2561  98.5189 14.60325267988089"
      },
      "geometry": {
        "type": "Point",
        "coordinates": [
          138.4473982199291,
          -80.77479413870905
        ]
      }
    },
    {
      "type": "Feature",
      "properties": {
        "norad_id": 30231,
        "name": "FENGYUN 1C DEB",
        "group": "fengyun-1c-debris",
        "lat": 68.81317318866074,
        "lon": 0.23040622980461853,
        "alt_km": 759.0224548403621,
        "timestamp": "2025-12-04T21:36:16.147715+00:00",
        "meta_object_name": "FENGYUN 1C DEB",
        "meta_object_id": "1999-025WQ",
        "meta_epoch": "2025-12-04T15:02:43.341792",
        "meta_mean_motion": 14.11617728,
        "meta_eccentricity": 0.01288238,
        "meta_inclination": 98.806,
        "meta_ra_of_asc_node": 23.5354,
        "meta_arg_of_pericenter": 52.2047,
        "meta_mean_anomaly": 69.9335,
        "meta_ephemeris_type": 0,
        "meta_classification_type": "U",
        "meta_norad_cat_id": 30231,
        "meta_element_set_no": 999,
        "meta_rev_at_epoch": 96905,
        "meta_bstar": 0.0009398834,
        "meta_mean_motion_dot": 1.804e-05,
        "meta_mean_motion_ddot": 0,
        "tle_line1": "1 30231U 99025WQ  25338.62689053  .00001804  00000+0  93988-3 0  9996",
        "tle_line2": "2 30231  98.8060  23.5354 0128823  52.2047  69.9335 14.11617728969050"
      },
      "geometry": {
        "type": "Point",
        "coordinates": [
          0.23040622980461853,
          68.81317318866074
        ]
      }
    }
  ]
}